[Satellite]
VERSION=1.1
NAME=SPOT 4
NICKNAME=SPOT 4
TLE1=1 25260U 98017A   11060.08329489  .00000053  00000-0  45000-4 0   881
TLE2=2 25260  98.6245 129.9697 0000561 128.6790 231.4437 14.20073693670595
